{
  "id": 1645978893,
  "type": "Feature",
  "properties": {
    "edtf:cessation": "2015-09-09T23:53:16",
    "edtf:inception": "2015-09-09~",
    "flysfo:airline": "F9",
    "flysfo:date": "2015-09-09",
    "flysfo:event": "A",
    "flysfo:flight_number": "F91245",
    "flysfo:journey": "ORD-SFO",
    "geom:area": 0,
    "geom:bbox": "-122.370943,37.617990,-87.894364,41.983038",
    "geom:latitude": 39.800514,
    "geom:longitude": -105.1326535,
    "iata:airline": "F9",
    "icao:aircraft": "A320",
    "icao:airline": "FFT",
    "mz:is_current": -1,
    "sfomuseum:aircraft_id": 1159292085,
    "sfomuseum:airline_id": 1159284401,
    "sfomuseum:arrival_id": 102527513,
    "sfomuseum:departure_id": 102533631,
    "sfomuseum:flight_id": "20150909-A-FFT-1245",
    "sfomuseum:flight_number": [
      "F91245", 
      "FFT1245"
    ],
    "sfomuseum:placetype": "flight",
    "src:geom": "sfonoise",
    "wof:belongsto": [
      1645978893, 
      102527513, 
      102191575, 
      85922583, 
      1159396321, 
      85633793, 
      102087579, 
      85688637
    ],
    "wof:country": "US",
    "wof:created": 1582918977,
    "wof:geomhash": "81d390dcf2582f737869c573200abb8f",
    "wof:hierarchy": [
      {
        "building_id": 1159396321,
        "campus_id": 102527513,
        "concourse_id": -1,
        "continent_id": 102191575,
        "country_id": 85633793,
        "county_id": 102087579,
        "event_id": 1645978893,
        "locality_id": 85922583,
        "neighbourhood_id": -1,
        "region_id": 85688637,
        "venue_id": -1,
        "wing_id": -1
      }
    ],
    "wof:id": 1645978893,
    "wof:lastmodified": 1582918977,
    "wof:name": "FFT1245 (ORD-SFO)",
    "wof:parent_id": -1,
    "wof:placetype": "event",
    "wof:repo": "sfomuseum-data-flights-2015",
    "wof:superseded_by": [],
    "wof:supersedes": []
  },
  "bbox": [
    -122.370943, 
    37.61799, 
    -87.894364, 
    41.983038
  ],
  "geometry": {"coordinates":[[-87.894364,41.983038],[-122.370943,37.61799]],"type":"MultiPoint"}
}
