{
  "id": 1646139497,
  "type": "Feature",
  "properties": {
    "edtf:cessation": "2015-10-28~",
    "edtf:inception": "2015-10-28T11:30:26",
    "flysfo:airline": "UA",
    "flysfo:date": "2015-10-28",
    "flysfo:event": "D",
    "flysfo:flight_number": "UA606",
    "flysfo:journey": "SFO-KSTL",
    "geom:area": 0,
    "geom:bbox": "-122.370943,37.617990,-90.367632,38.743872",
    "geom:latitude": 38.180931,
    "geom:longitude": -106.3692875,
    "iata:airline": "UA",
    "icao:aircraft": "A319",
    "icao:airline": "UAL",
    "mz:is_current": -1,
    "sfomuseum:aircraft_id": 1159289407,
    "sfomuseum:airline_id": 1159285413,
    "sfomuseum:arrival_id": 102525961,
    "sfomuseum:departure_id": 102527513,
    "sfomuseum:flight_id": "20151028-D-UAL-606",
    "sfomuseum:flight_number": [
      "UA606", 
      "UAL606"
    ],
    "sfomuseum:placetype": "flight",
    "src:geom": "sfonoise",
    "wof:belongsto": [
      85688637, 
      85633793, 
      1159396321, 
      102087579, 
      1646139497, 
      102527513, 
      102191575, 
      85922583
    ],
    "wof:country": "US",
    "wof:created": 1582919951,
    "wof:geomhash": "17371a5d27e54a99ca50752d2b6a5e79",
    "wof:hierarchy": [
      {
        "building_id": 1159396321,
        "campus_id": 102527513,
        "concourse_id": -1,
        "continent_id": 102191575,
        "country_id": 85633793,
        "county_id": 102087579,
        "event_id": 1646139497,
        "locality_id": 85922583,
        "neighbourhood_id": -1,
        "region_id": 85688637,
        "venue_id": -1,
        "wing_id": -1
      }
    ],
    "wof:id": 1646139497,
    "wof:lastmodified": 1582919951,
    "wof:name": "UAL606 (SFO-KSTL)",
    "wof:parent_id": -1,
    "wof:placetype": "event",
    "wof:repo": "sfomuseum-data-flights-2015",
    "wof:superseded_by": [],
    "wof:supersedes": []
  },
  "bbox": [
    -122.370943, 
    37.61799, 
    -90.367632, 
    38.743872
  ],
  "geometry": {"coordinates":[[-122.370943,37.61799],[-90.367632,38.743872]],"type":"MultiPoint"}
}
